KUIPER-00008            
1 63724U 25088A   26001.77846842  .00013952  00000+0  11652-2 0  9996
2 63724  51.8915  31.9402 0007657 236.7682 123.2555 14.98747108 38026
KUIPER-00009            
1 63725U 25088B   26001.32072992  .00003972  00000+0  55017-3 0  9990
2 63725  51.9051  44.5308 0010738 232.2421 127.7569 14.79883290 37801
KUIPER-00010            
1 63726U 25088C   26002.00003472  .00022219  00000+0  29911-2 0  9992
2 63726  51.9016  17.8450 0009259 280.2556 215.9694 14.79093918  4737
KUIPER-00011            
1 63727U 25088D   26001.27074263  .00001004  00000+0  16076-3 0  9995
2 63727  51.9010  28.7805 0012278 253.6801 106.2811 14.79952105 37774
KUIPER-00012            
1 63728U 25088E   26001.95837138  .00001252  00000+0  20846-3 0  9994
2 63728  51.9053   9.5726 0006968 266.6523  93.3641 14.76574486 38053
KUIPER-00013            
1 63729U 25088F   26001.31978857  .00003281  00000+0  46004-3 0  9997
2 63729  51.9027  45.9991 0006530 157.5815 202.5434 14.79854578 37598
KUIPER-00014            
1 63730U 25088G   26001.52053499 -.00003377  00000+0 -41391-3 0  9990
2 63730  51.9033  46.0802 0004965 251.0607 108.9817 14.79934823 37427
KUIPER-00015            
1 63731U 25088H   26001.53213036  .00007886  00000+0  10090-2 0  9995
2 63731  51.8991  56.7145 0009905 210.6564 149.3821 14.82082198 37731
